{
"type": "FeatureCollection",
"name": "leonia_borough",
"crs": { "type": "name", "properties": { "name": "urn:ogc:def:crs:OGC:1.3:CRS84" } },
"features": [
{ "type": "Feature", "properties": { "bbox_west": -74.006283, "bbox_south": 40.850884, "bbox_east": -73.97569, "bbox_north": 40.876602, "place_id": 360098346, "osm_type": "relation", "osm_id": 170634, "lat": 40.8617353, "lon": -73.9880495, "class": "boundary", "type": "administrative", "place_rank": 16, "importance": 0.43695500143162558, "addresstype": "village", "name": "Leonia", "display_name": "Leonia, Bergen County, New Jersey, 07605, United States" }, "geometry": { "type": "Polygon", "coordinates": [ [ [ -74.006283, 40.855799 ], [ -74.005908, 40.855831 ], [ -74.005891, 40.855849 ], [ -74.005787, 40.856137 ], [ -74.005771, 40.85625 ], [ -74.005742, 40.856327 ], [ -74.005499, 40.85654 ], [ -74.005389, 40.856682 ], [ -74.001141, 40.855415 ], [ -74.000082, 40.855799 ], [ -73.99829, 40.855105 ], [ -73.997417, 40.856176 ], [ -73.997383, 40.856161 ], [ -73.9973442, 40.856144 ], [ -73.9972899, 40.8561141 ], [ -73.99627, 40.855558 ], [ -73.996052, 40.855434 ], [ -73.995234, 40.854962 ], [ -73.994468, 40.85452 ], [ -73.993526, 40.853978 ], [ -73.993461, 40.85407 ], [ -73.992343, 40.853442 ], [ -73.9923265, 40.8534327 ], [ -73.991624, 40.853037 ], [ -73.9915985, 40.8530226 ], [ -73.990868, 40.852612 ], [ -73.990139, 40.852202 ], [ -73.989518, 40.85168 ], [ -73.988712, 40.851259 ], [ -73.987985, 40.850884 ], [ -73.985961, 40.853208 ], [ -73.985344, 40.853804 ], [ -73.984777, 40.854344 ], [ -73.984228, 40.854929 ], [ -73.983651, 40.85551 ], [ -73.983092, 40.856083 ], [ -73.982599, 40.856605 ], [ -73.982753, 40.856696 ], [ -73.981338, 40.858725 ], [ -73.98116, 40.858553 ], [ -73.980744, 40.858154 ], [ -73.98071, 40.858127 ], [ -73.9806204, 40.8582938 ], [ -73.980363, 40.858773 ], [ -73.979611, 40.860178 ], [ -73.979382, 40.860799 ], [ -73.978783, 40.860699 ], [ -73.977687, 40.8605 ], [ -73.977625, 40.861338 ], [ -73.976375, 40.863927 ], [ -73.975979, 40.866037 ], [ -73.975883, 40.8668916 ], [ -73.97581, 40.86715 ], [ -73.975695, 40.868462 ], [ -73.97569, 40.868903 ], [ -73.976186, 40.869155 ], [ -73.978515, 40.870534 ], [ -73.978606, 40.870627 ], [ -73.979019, 40.871055 ], [ -73.979364, 40.871385 ], [ -73.979724, 40.871705 ], [ -73.97991, 40.871861 ], [ -73.980376, 40.872237 ], [ -73.980798, 40.872575 ], [ -73.981144, 40.872838 ], [ -73.981398, 40.87302 ], [ -73.982316, 40.874126 ], [ -73.981872, 40.874272 ], [ -73.98188, 40.874278 ], [ -73.98226, 40.874406 ], [ -73.982568, 40.874477 ], [ -73.982802, 40.874638 ], [ -73.983101, 40.874843 ], [ -73.983298, 40.875044 ], [ -73.983367, 40.875127 ], [ -73.984718, 40.875171 ], [ -73.98496, 40.875178 ], [ -73.986096, 40.875215 ], [ -73.986141, 40.875247 ], [ -73.986275, 40.875304 ], [ -73.986474, 40.875397 ], [ -73.986606, 40.875438 ], [ -73.987148, 40.875578 ], [ -73.987478, 40.875657 ], [ -73.987521, 40.875687 ], [ -73.987541, 40.875703 ], [ -73.987559, 40.875721 ], [ -73.987581, 40.875728 ], [ -73.987777, 40.875864 ], [ -73.987916, 40.875893 ], [ -73.987997, 40.87594 ], [ -73.988171, 40.875947 ], [ -73.988426, 40.875973 ], [ -73.988736, 40.875965 ], [ -73.988985, 40.876003 ], [ -73.989179, 40.876157 ], [ -73.989378, 40.876234 ], [ -73.989837, 40.876277 ], [ -73.990105, 40.876292 ], [ -73.990713, 40.876277 ], [ -73.990992, 40.876358 ], [ -73.991493, 40.876512 ], [ -73.99155, 40.876526 ], [ -73.991565, 40.876499 ], [ -73.991559, 40.876424 ], [ -73.991586, 40.876353 ], [ -73.9916536, 40.8763016 ], [ -73.991699, 40.876267 ], [ -73.991786, 40.876256 ], [ -73.991849, 40.876283 ], [ -73.991907, 40.876316 ], [ -73.99195, 40.876348 ], [ -73.992001, 40.8764146 ], [ -73.992012, 40.876429 ], [ -73.992127, 40.876515 ], [ -73.992219, 40.876569 ], [ -73.9923385, 40.876577 ], [ -73.992383, 40.87658 ], [ -73.99244, 40.876564 ], [ -73.99264, 40.876456 ], [ -73.99271, 40.87644 ], [ -73.992909, 40.876429 ], [ -73.993131, 40.876461 ], [ -73.993279, 40.876494 ], [ -73.99338, 40.876526 ], [ -73.993444, 40.876526 ], [ -73.993508, 40.876542 ], [ -73.993527, 40.876554 ], [ -73.993643, 40.876602 ], [ -73.993799, 40.876601 ], [ -73.993933, 40.876539 ], [ -73.994035, 40.876521 ], [ -73.99413, 40.87651 ], [ -73.994151, 40.876168 ], [ -73.994117, 40.874973 ], [ -73.994052, 40.874607 ], [ -73.994003, 40.874537 ], [ -73.993512, 40.873876 ], [ -73.993091, 40.873303 ], [ -73.992935, 40.873091 ], [ -73.992942, 40.873032 ], [ -73.993536, 40.87236 ], [ -73.996055, 40.869514 ], [ -73.996822, 40.868647 ], [ -73.99863, 40.866791 ], [ -73.99875, 40.866668 ], [ -73.99889, 40.866609 ], [ -73.999021, 40.866553 ], [ -74.002723, 40.864981 ], [ -74.002983, 40.864282 ], [ -74.00312, 40.863912 ], [ -74.003258, 40.863543 ], [ -74.003799, 40.86209 ], [ -74.004382, 40.860645 ], [ -74.004683, 40.859899 ], [ -74.005883, 40.857899 ], [ -74.006283, 40.855799 ] ] ] } }
]
}
